HIMAWARI-8              
1 40267U 14060A   23326.82737973 -.00000271  00000+0  00000+0 0  9991
2 40267   0.0144  92.8327 0000809 183.1992 224.0361  1.00269081 33361
